SCD 1                   
1 22490U 93009B   26177.96048166  .00000385  00000+0  54031-4 0  9993
2 22490  24.9681 147.2297 0041663 241.2490 160.8127 14.46122069762536
TECHSAT 1B (GO-32)      
1 25397U 98043D   26177.96864711  .00000060  00000+0  46233-4 0  9992
2 25397  99.0071 170.9741 0001544 144.7408 215.3873 14.24430194452726
SCD 2                   
1 25504U 98060A   26177.91426883  .00000371  00000+0  52684-4 0  9992
2 25504  24.9967  12.1724 0016595 225.4940 269.5872 14.45529214461731
DLR-TUBSAT              
1 25757U 99029B   26177.93805701  .00000091  00000+0  34125-4 0  9999
2 25757  98.6697 173.7631 0013490 324.6214  35.4084 14.52429063434663
TERRA                   
1 25994U 99068A   26177.95492160  .00000370  00000+0  84257-4 0  9999
2 25994  97.9451 227.1137 0002353 161.3935 299.0284 14.61110261411036
MAROC-TUBSAT            
1 27004U 01056D   26177.95321697 -.00000019  00000+0  31721-4 0  9998
2 27004  99.8086 354.9970 0020553 117.0329  47.3009 13.70262858227523
AQUA                    
1 27424U 02022A   26177.90161929  .00000763  00000+0  16139-3 0  9993
2 27424  98.4280 147.3787 0000776  67.0038 318.4828 14.62171922284691
SHIYAN-1 (SY-1)         
1 28220U 04012A   26177.90381506  .00015027  00000+0  45891-3 0  9990
2 28220  97.8697 256.6044 0004749 357.4950   2.6267 15.34000202212584
AURA                    
1 28376U 04026A   26177.91440805  .00000751  00000+0  16179-3 0  9991
2 28376  98.3420 134.4483 0001165  83.1778 276.9555 14.61342853167637
IRS-P5 (CARTOSAT-1)     
1 28649U 05017A   26177.94317914  .00001506  00000+0  15742-3 0  9996
2 28649  97.5305 200.5651 0002315  67.8911 292.2554 14.91073342145274
SINAH 1                 
1 28893U 05043D   26177.96333498  .00000326  00000+0  71436-4 0  9995
2 28893  98.2871 312.3433 0013284 243.2268 116.7576 14.64163870101950
RESURS-DK 1             
1 29228U 06021A   26177.81853297  .00002398  00000+0  14057-3 0  9999
2 29228  69.9337 314.6217 0006757 287.2968  72.7458 15.13254935104032
ARIRANG-2 (KOMPSAT-2)   
1 29268U 06031A   26178.01278206  .00000651  00000+0  13058-3 0  9998
2 29268  97.8309   1.9843 0015607  46.2428 115.1653 14.64666944 62915
LAPAN-TUBSAT            
1 29709U 07001A   26177.95100545  .00000839  00000+0  10261-3 0  9999
2 29709  98.1343 177.3949 0012769 148.2877 211.9110 14.85959473 52602
HAIYANG-1B              
1 31113U 07010A   26177.93362949  .00000094  00000+0  51364-4 0  9990
2 31113  98.3498 159.4010 0013681 167.1755 192.9779 14.31029234  2031
COSMO-SKYMED 1          
1 31598U 07023A   26177.95992552  .00003006  00000+0  26538-3 0  9992
2 31598  97.8860   9.8981 0001793  89.0702 271.0725 14.97151672 31255
TERRASAR-X              
1 31698U 07026A   26177.61088571  .00000881  00000+0  45155-4 0  9991
2 31698  97.4450 185.1818 0001614  89.1456 270.9963 15.19154138 54659
WORLDVIEW-1 (WV-1)      
1 32060U 07041A   26177.94194193  .00006541  00000+0  26999-3 0  9999
2 32060  97.3883 297.5460 0001322 343.7153  16.4042 15.24369330 44368
YAOGAN-3                
1 32289U 07055A   26177.99392608  .00002304  00000+0  23984-3 0  9997
2 32289  97.8156 207.7750 0001847  82.6709 277.4719 14.90818348  7338
COSMO-SKYMED 2          
1 32376U 07059A   26177.95006794  .00000449  00000+0  62985-4 0  9995
2 32376  97.8888   1.4064 0001348  88.3853 271.7514 14.82152873  3457
RADARSAT-2              
1 32382U 07061A   26177.97367397  .00000201  00000+0  94819-4 0  9993
2 32382  98.5779 184.7660 0001298  85.6591 274.4739 14.29984244967354
CARTOSAT-2A             
1 32783U 08021A   26177.99009689  .00000867  00000+0  12321-3 0  9999
2 32783  97.7635 226.3641 0013374  80.5378 279.7345 14.79253255980259
HUANJING 1A (HJ-1A)     
1 33320U 08041A   26177.94326139  .00001286  00000+0  16011-3 0  9992
2 33320  97.6683 163.4042 0020564 104.8028 255.5467 14.84008612959856
HUANJING 1B (HJ-1B)     
1 33321U 08041B   26177.98424230  .00000978  00000+0  12429-3 0  9994
2 33321  97.6517 166.5854 0036938 149.0131 211.3274 14.83332079959869
GEOEYE 1                
1 33331U 08042A   26177.92070217  .00000305  00000+0  66413-4 0  9999
2 33331  98.1335 251.7297 0005253  41.4688 318.6912 14.64634303951574
THEOS                   
1 33396U 08049A   26177.97358100  .00000011  00000+0  24957-4 0  9993
2 33396  98.5574 234.9394 0001183  82.0190 278.1121 14.20134424919355
COSMO-SKYMED 3          
1 33412U 08054A   26177.90389416  .00003136  00000+0  21342-3 0  9990
2 33412  97.8274  36.6363 0014462 230.5540 129.4408 15.07003968958408
YAOGAN-4                
1 33446U 08061A   26177.81423830  .00001025  00000+0  13180-3 0  9990
2 33446  97.9307 111.2534 0015326  43.8508 316.3919 14.83218040947091
GOSAT (IBUKI)           
1 33492U 09002A   26177.88840507 -.00000078  00000+0 -53497-5 0  9994
2 33492  98.0902 288.8485 0001349  83.3538 276.7820 14.67538179932884
DEIMOS-1                
1 35681U 09041A   26177.95343118  .00000914  00000+0  14222-3 0  9991
2 35681  97.7408 334.7582 0002194 117.5503 242.5930 14.75248355908321
